{
  "type": "FeatureCollection",
  "features": [
    {
      "type": "Feature",
      "properties": {
        "norad_id": 28051,
        "name": "IRS-P6 (RESOURCESAT-1)",
        "group": "resource",
        "lat": -41.16928564502528,
        "lon": -151.9340913599578,
        "alt_km": 759.3989924981888,
        "timestamp": "2025-12-21T07:34:34.197067+00:00",
        "meta_object_name": "IRS-P6 (RESOURCESAT-1)",
        "meta_object_id": "2003-046A",
        "meta_epoch": "2025-12-20T22:45:11.155392",
        "meta_mean_motion": 14.36077485,
        "meta_eccentricity": 0.00646889,
        "meta_inclination": 98.2169,
        "meta_ra_of_asc_node": 34.9747,
        "meta_arg_of_pericenter": 156.1149,
        "meta_mean_anomaly": 325.3144,
        "meta_ephemeris_type": 0,
        "meta_classification_type": "U",
        "meta_norad_cat_id": 28051,
        "meta_element_set_no": 999,
        "meta_rev_at_epoch": 15494,
        "meta_bstar": -1.930018e-06,
        "meta_mean_motion_dot": -4.6e-07,
        "meta_mean_motion_ddot": 0,
        "tle_line1": "1 28051U 03046A   25354.94804578 -.00000046  00000+0 -19300-5 0  9992",
        "tle_line2": "2 28051  98.2169  34.9747 0064688 156.1149 325.3144 14.36077485154946"
      },
      "geometry": {
        "type": "Point",
        "coordinates": [
          -151.9340913599578,
          -41.16928564502528
        ]
      }
    },
    {
      "type": "Feature",
      "properties": {
        "norad_id": 28220,
        "name": "SHIYAN-1 (SY-1)",
        "group": "resource",
        "lat": 55.27322996850377,
        "lon": 45.81527270517748,
        "alt_km": 477.6238360316802,
        "timestamp": "2025-12-21T07:34:34.197078+00:00",
        "meta_object_name": "SHIYAN-1 (SY-1)",
        "meta_object_id": "2004-012A",
        "meta_epoch": "2025-12-20T21:54:13.277952",
        "meta_mean_motion": 15.283389,
        "meta_eccentricity": 0.00052063,
        "meta_inclination": 97.8928,
        "meta_ra_of_asc_node": 56.9343,
        "meta_arg_of_pericenter": 291.622,
        "meta_mean_anomaly": 68.4464,
        "meta_ephemeris_type": 0,
        "meta_classification_type": "U",
        "meta_norad_cat_id": 28220,
        "meta_element_set_no": 999,
        "meta_rev_at_epoch": 18381,
        "meta_bstar": 0.00033427156,
        "meta_mean_motion_dot": 9.149e-05,
        "meta_mean_motion_ddot": 0,
        "tle_line1": "1 28220U 04012A   25354.91265368  .00009149  00000+0  33427-3 0  9994",
        "tle_line2": "2 28220  97.8928  56.9343 0005206 291.6220  68.4464 15.28338900183816"
      },
      "geometry": {
        "type": "Point",
        "coordinates": [
          45.81527270517748,
          55.27322996850377
        ]
      }
    },
    {
      "type": "Feature",
      "properties": {
        "norad_id": 28376,
        "name": "AURA",
        "group": "resource",
        "lat": 4.885380814437347,
        "lon": 126.29911671724136,
        "alt_km": 692.275616967263,
        "timestamp": "2025-12-21T07:34:34.197088+00:00",
        "meta_object_name": "AURA",
        "meta_object_id": "2004-026A",
        "meta_epoch": "2025-12-20T20:54:56.653920",
        "meta_mean_motion": 14.60963566,
        "meta_eccentricity": 0.00013704,
        "meta_inclination": 98.3196,
        "meta_ra_of_asc_node": 305.1362,
        "meta_arg_of_pericenter": 92.8169,
        "meta_mean_anomaly": 267.3188,
        "meta_ephemeris_type": 0,
        "meta_classification_type": "U",
        "meta_norad_cat_id": 28376,
        "meta_element_set_no": 999,
        "meta_rev_at_epoch": 14017,
        "meta_bstar": 0.00015769695,
        "meta_mean_motion_dot": 7.25e-06,
        "meta_mean_motion_ddot": 0,
        "tle_line1": "1 28376U 04026A   25354.87148905  .00000725  00000+0  15770-3 0  9995",
        "tle_line2": "2 28376  98.3196 305.1362 0001370  92.8169 267.3188 14.60963566140174"
      },
      "geometry": {
        "type": "Point",
        "coordinates": [
          126.29911671724136,
          4.885380814437347
        ]
      }
    },
    {
      "type": "Feature",
      "properties": {
        "norad_id": 28649,
        "name": "IRS-P5 (CARTOSAT-1)",
        "group": "resource",
        "lat": -35.43053267464299,
        "lon": -164.0649983630272,
        "alt_km": 603.4288513681568,
        "timestamp": "2025-12-21T07:34:34.197098+00:00",
        "meta_object_name": "IRS-P5 (CARTOSAT-1)",
        "meta_object_id": "2005-017A",
        "meta_epoch": "2025-12-20T19:19:56.973792",
        "meta_mean_motion": 14.90429069,
        "meta_eccentricity": 7.588e-05,
        "meta_inclination": 97.5485,
        "meta_ra_of_asc_node": 20.861,
        "meta_arg_of_pericenter": 52.6097,
        "meta_mean_anomaly": 307.519,
        "meta_ephemeris_type": 0,
        "meta_classification_type": "U",
        "meta_norad_cat_id": 28649,
        "meta_element_set_no": 999,
        "meta_rev_at_epoch": 11724,
        "meta_bstar": 0.0001066612,
        "meta_mean_motion_dot": 9.87e-06,
        "meta_mean_motion_ddot": 0,
        "tle_line1": "1 28649U 05017A   25354.80552053  .00000987  00000+0  10666-3 0  9994",
        "tle_line2": "2 28649  97.5485  20.8610 0000758  52.6097 307.5190 14.90429069117249"
      },
      "geometry": {
        "type": "Point",
        "coordinates": [
          -164.0649983630272,
          -35.43053267464299
        ]
      }
    },
    {
      "type": "Feature",
      "properties": {
        "norad_id": 28893,
        "name": "SINAH 1",
        "group": "resource",
        "lat": 64.58994754456438,
        "lon": -38.29629079744471,
        "alt_km": 663.0272021753308,
        "timestamp": "2025-12-21T07:34:34.197108+00:00",
        "meta_object_name": "SINAH 1",
        "meta_object_id": "2005-043D",
        "meta_epoch": "2025-12-20T22:51:21.531456",
        "meta_mean_motion": 14.63970356,
        "meta_eccentricity": 0.00156563,
        "meta_inclination": 98.2608,
        "meta_ra_of_asc_node": 123.5317,
        "meta_arg_of_pericenter": 112.9759,
        "meta_mean_anomaly": 247.3097,
        "meta_ephemeris_type": 0,
        "meta_classification_type": "U",
        "meta_norad_cat_id": 28893,
        "meta_element_set_no": 999,
        "meta_rev_at_epoch": 7444,
        "meta_bstar": 6.5224676e-05,
        "meta_mean_motion_dot": 2.93e-06,
        "meta_mean_motion_ddot": 0,
        "tle_line1": "1 28893U 05043D   25354.95233254  .00000293  00000+0  65225-4 0  9991",
        "tle_line2": "2 28893  98.2608 123.5317 0015656 112.9759 247.3097 14.63970356 74449"
      },
      "geometry": {
        "type": "Point",
        "coordinates": [
          -38.29629079744471,
          64.58994754456438
        ]
      }
    },
    {
      "type": "Feature",
      "properties": {
        "norad_id": 29079,
        "name": "EROS B",
        "group": "resource",
        "lat": 39.79177544079379,
        "lon": -61.51612259639077,
        "alt_km": 355.8949319353078,
        "timestamp": "2025-12-21T07:34:34.197117+00:00",
        "meta_object_name": "EROS B",
        "meta_object_id": "2006-014A",
        "meta_epoch": "2025-12-20T21:48:34.915680",
        "meta_mean_motion": 15.70744469,
        "meta_eccentricity": 0.00035825,
        "meta_inclination": 97.3463,
        "meta_ra_of_asc_node": 111.887,
        "meta_arg_of_pericenter": 311.4838,
        "meta_mean_anomaly": 48.6116,
        "meta_ephemeris_type": 0,
        "meta_classification_type": "U",
        "meta_norad_cat_id": 29079,
        "meta_element_set_no": 999,
        "meta_rev_at_epoch": 9208,
        "meta_bstar": 0.0010642219,
        "meta_mean_motion_dot": 0.00133477,
        "meta_mean_motion_ddot": 0,
        "tle_line1": "1 29079U 06014A   25354.90873745  .00133477  00000+0  10642-2 0  9999",
        "tle_line2": "2 29079  97.3463 111.8870 0003582 311.4838  48.6116 15.70744469 92085"
      },
      "geometry": {
        "type": "Point",
        "coordinates": [
          -61.51612259639077,
          39.79177544079379
        ]
      }
    },
    {
      "type": "Feature",
      "properties": {
        "norad_id": 29228,
        "name": "RESURS-DK 1",
        "group": "resource",
        "lat": 67.81007040975719,
        "lon": -163.9812315923486,
        "alt_km": 526.4269982005108,
        "timestamp": "2025-12-21T07:34:34.197127+00:00",
        "meta_object_name": "RESURS-DK 1",
        "meta_object_id": "2006-021A",
        "meta_epoch": "2025-12-20T16:50:56.206752",
        "meta_mean_motion": 15.12200991,
        "meta_eccentricity": 0.00068548,
        "meta_inclination": 69.9339,
        "meta_ra_of_asc_node": 81.261,
        "meta_arg_of_pericenter": 252.2232,
        "meta_mean_anomaly": 107.8186,
        "meta_ephemeris_type": 0,
        "meta_classification_type": "U",
        "meta_norad_cat_id": 29228,
        "meta_element_set_no": 999,
        "meta_rev_at_epoch": 7558,
        "meta_bstar": 0.00010511178,
        "meta_mean_motion_dot": 1.712e-05,
        "meta_mean_motion_ddot": 0,
        "tle_line1": "1 29228U 06021A   25354.70203943  .00001712  00000+0  10511-3 0  9990",
        "tle_line2": "2 29228  69.9339  81.2610 0006854 252.2232 107.8186 15.12200991 75589"
      },
      "geometry": {
        "type": "Point",
        "coordinates": [
          -163.9812315923486,
          67.81007040975719
        ]
      }
    }
  ]
}